[{"OBJECT_NAME":"STARLINK-32550","OBJECT_ID":"2024-222T","EPOCH":"2026-03-09T13:01:26.213664","MEAN_MOTION":15.27589967,"ECCENTRICITY":0.00016256,"INCLINATION":42.9979,"RA_OF_ASC_NODE":137.2508,"ARG_OF_PERICENTER":252.2152,"MEAN_ANOMALY":107.8523,"EPHEMERIS_TYPE":0,"CLASSIFICATION_TYPE":"U","NORAD_CAT_ID":62131,"ELEMENT_SET_NO":999,"REV_AT_EPOCH":7277,"BSTAR":0.00085031734,"MEAN_MOTION_DOT":0.00023218,"MEAN_MOTION_DDOT":0},{"OBJECT_NAME":"TITAN 4B R\/B","OBJECT_ID":"2005-016B","EPOCH":"2026-03-09T20:27:57.848832","MEAN_MOTION":15.42682045,"ECCENTRICITY":0.00616552,"INCLINATION":56.9964,"RA_OF_ASC_NODE":245.9411,"ARG_OF_PERICENTER":20.2929,"MEAN_ANOMALY":340.0555,"EPHEMERIS_TYPE":0,"CLASSIFICATION_TYPE":"U","NORAD_CAT_ID":28647,"ELEMENT_SET_NO":999,"REV_AT_EPOCH":37707,"BSTAR":0.00046483736,"MEAN_MOTION_DOT":0.0002164,"MEAN_MOTION_DDOT":0}]
